#dP2020  9 12  0  0  0.00000000      96 __u+U IGS14 FIT  IAC
## 2122 518400.00000000   900.00000000 59104 0.0000000000000
+  119   C01C02C03C04C05C06C07C08C09C10C11C12C13C14C16C19C20
+        C21C22C23C24C25C26C27C28C29C30C32C33C34C35C36C37C38
+        C39C40C43C44C45C46E01E02E03E04E05E07E08E09E11E12E13
+        E14E15E18E19E21E24E25E26E27E30E31E33E36G01G02G03G04
+        G05G06G07G08G09G10G11G12G13G15G16G17G18G19G20G21G22
+        G24G25G26G27G28G29G30G31G32J01J02J03R01R02R03R04R05
+        R07R08R11R12R13R14R15R16R17R18R19R20R21R22R23R24R26
++        13 12 13 13 13  8  8  8  8  8  7  7  7  7  8  7  7
++         7  7  7  7  7  7  7  7  8  7  7  7  7  7  8  8 10
++        10 10  8  9  9  9  4  4  4  4  4  4  4  4  4  4  4
++         4  4  4  4  4  4  4  4  4  4  4  4  4  3  3  3  3
++         3  3  3  3  3  3  3  3  4  4  3  3  3  3  3  3  3
++         3  3  3  3  3  3  3  3  3  9  9 10  6  5  5  5  5
++         5  5  5  5  6  5  5  6  5  5  6  6  5  6  5  5  8
%c M  cc GPS ccc cccc cccc cccc cccc ccccc ccccc ccccc ccccc
%c cc cc ccc ccc cccc cccc cccc cccc ccccc ccccc ccccc ccccc
%f  1.2500000  1.025000000  0.00000000000  0.000000000000000
%f  0.0000000  0.000000000  0.00000000000  0.000000000000000
%i    0    0    0    0      0      0      0      0         0
%i    0    0    0    0      0      0      0      0         0
/* INFORMATION & ANALYSIS CENTER (IAC)            FINAL DATA
/* S/V CLOCKS ARE ALIGNED TO GNSS TIME                      
/* G:C1WC2W R:C1PC2P E:C1XC5X C:C2IC6I J:C1CC2S             
/* PCV:IGS14_2118 OL/AL:FES2004  NONE     YN ORB:CoN CLK:CoN
*  2020 09 12  4  0  0.00000000
PC01 -34274.991437  24497.915592   -556.827703   -146.345837
PC02   4383.287273  41951.773592    744.395711    843.004131
PC03 -14843.465510  39446.820310   1221.352544    796.947340
PC04 -39584.787385  14455.003215    296.908293    273.467998
PC05  21864.799144  36055.341630    792.882887   -229.727746
PC06 -23404.443345  34637.954545  -6641.167186    245.516545
PC07  -8988.253782  31294.466639 -26270.545521     -4.848226
PC08 -16739.935101  17894.652695  34311.498917   -518.185127
PC09 -12697.091146  34790.658032 -20254.424589    804.466015
PC10   2886.827282  38284.580040 -16691.862559   -188.880794
PC11 -23913.573922  13013.529206  -5924.124721   -615.220488
PC12 -19125.673388  -2072.842897 -20169.876726    506.560103
PC13   -777.457682  23001.460880  35409.955287    642.856502
PC14 -14473.938700   8557.296955  22282.628357    265.303438
PC16 -20005.286302  35608.309711 -10751.009590   -589.187301
PC19  10205.219116 -18359.874736 -18362.246416    543.111133
PC20  16103.383918   1113.250327 -22751.913210   -842.257442
PC21 -12594.843598 -20797.950612  13726.998257   -676.761049
PC22  -1697.920326 -27686.577459  -3207.321200   -765.421117
PC23   3628.730559  17839.012964 -21135.012657   -861.683559
PC24 -26303.906443  -4817.434731  -7937.736018   -729.149081
PC25 -15483.256094   9993.637431 -20949.256204   -753.825465
PC26 -21822.792896 -15053.407099   8662.310278    827.020151
PC27  12153.540512  10541.976881  22782.621272    397.485388
PC28  -6281.345238  20323.419832  18056.560537   -171.327230
PC29  20279.336498 -18973.081416  -2779.501302    282.667334
PC30  23124.976396  -5912.336305  14443.059515    374.495478
PC32  12739.334760  20698.114638 -13695.367935   -901.124533
PC33 -10203.065891  18303.655444  18418.751943   -796.913788
PC34 -23310.886217   6308.047512 -14005.954758   -856.700625
PC35   5756.121365 -20617.735415 -17892.352418   -658.264383
PC36  15946.786940  -9476.025381  20880.260121   -926.658697
PC37  21044.594447  15812.096348  -9256.666382   -929.667683
PC38 -13973.057524  21220.448979  33617.202447     99.956114
PC39 -17344.530214  36904.501567 -10948.587160     22.253049
PC40   -761.300411  36942.529249 -20118.320059     80.286163
PC43 -20577.637652  18707.645119   2406.806139   -368.802575
PC44 -12439.956366 -10372.311500 -22732.170598 999999.999999
PC45  -3730.595720 -17737.727404  21228.589828    228.503816
PC46  26228.435278   4306.362398   8568.659312    643.067864
PE01  13962.242727  -9001.886734  24507.814731   -938.972070
PE02 -13875.407676   9095.789204 -24505.440597    161.014407
PE03 -16722.459254  20203.359097  13705.361746   -341.902215
PE04   6146.774413 -28656.084439   4172.263600   -605.348016
PE05 -17629.782625   -205.433357  23775.851710   -346.842158
PE07   8240.199574  20311.946368 -19881.966559   -434.929949
PE08  -5818.089110  28673.903931  -4430.355982   6121.881533
PE09  -8316.979681 -20155.781665  20029.519153   5933.696725
PE11 -15266.298694 -11730.653002 -22495.234740   5446.999581
PE12   7266.221707 -17141.844826 -23012.311926   5609.838494
PE13  15031.006906  11728.760572  22643.877114    403.614581
PE14 -22045.318762  14169.146149 -11886.977529  -1152.785474
PE15  -7012.283450  17096.974365  23124.073048    852.838499
PE18  14682.675916 -24701.135064  -3429.302832  -1259.906484
PE19  17284.474162 -18403.155804 -15450.203544     76.324415
PE21  23009.002626   9380.810192  16089.291703   -620.942337
PE24 -18489.599198 -22989.831979   2302.353750   5248.631240
PE25 -23029.292378  -9539.318756 -15953.048038   -516.486820
PE26  28405.195969   -668.380400   8322.916462   2736.322955
PE27  18848.834754  22743.855722  -1895.258207    135.950470
PE30   3004.775023  22513.692783 -18983.922247   3591.544861
PE31  -3621.827090 -22678.683684  18693.147265   -474.076533
PE33  24939.800481 -12413.193230 -10008.331472   -462.846339
PE36 -28233.400691    521.855741  -8867.050005    508.603895
PG01 -11890.157480 -13701.943258 -19751.948438     36.075064
PG02 -11197.733741  14396.737472  19942.479356   -515.247002
PG03 -12690.081834 -23395.151951    251.737689   -296.646794
PG04  -5282.040425 -16956.502152  19744.661039   -134.967005
PG05  -2126.591817  20215.939052  16842.388011    -20.903696
PG06 -23501.882018   6406.086943  10682.380543   -324.866490
PG07 -24950.260098  -6523.199108   7666.750350   -370.625502
PG08   3328.552473 -22815.776111 -12936.954736    -47.664926
PG09 -14461.909599  -5586.532732  21510.908754   -284.722461
PG10  16599.200618    708.778404 -20690.258083   -452.352318
PG11  -1632.601974 -17028.373729 -20850.786282   -166.757211
PG12  10049.600172  24650.469938  -1301.347805     68.365378
PG13 -12223.971355  22512.080605  -6924.115677     44.465266
PG15    198.584428  22885.985839 -13491.651623   -204.270494
PG16   2363.659265 -21107.447870  15437.042256   -207.959634
PG17 -19285.339477  11537.750738 -13696.744351    324.655910
PG18  25110.666320   5874.052883   6442.656098    288.552726
PG19 -19475.867913  16184.914816  -8193.218589   -106.047302
PG20  20265.197614  11131.234572 -13362.750371    526.764826
PG21  14062.337146 -12973.169926 -17563.153820     46.165658
PG22  -9106.017192 -23860.779754  -7373.750789   -755.317271
PG24   9191.684995  14739.829935 -20387.840959    -18.446609
PG25  16877.897294  18575.398942   8846.970005     47.893895
PG26  11355.723090 -11034.176630  21268.790167    277.342406
PG27  12018.108717 -23296.762161  -3068.273999   -393.548491
PG28 -15435.926204    -49.413379 -21011.197445    679.703355
PG29  11264.186395   9409.846933  22095.168584   -192.892658
PG30 -26531.112910    317.855104  -2733.086396   -300.117797
PG31  22747.001425  -7200.447944  12090.168208    -68.148346
PG32  18886.412519 -12724.448582 -13456.994228    345.164389
PJ01 -26704.222936  26829.252338  23463.882507   -347.836852
PJ02 -24067.431791  16269.879211 -26088.876539     -3.567436
PJ03 -28533.150149  31060.552038   4011.830656     -1.054307
PR01  -3204.438108  24752.549674   5227.024794     67.445302
PR02   6215.649872  19460.159723 -15278.426475    445.213181
PR03  10829.081479   2236.131756 -22951.470184     21.865181
PR04   9020.428708 -16094.784061 -17589.505395     54.266315
PR05   2325.403493 -25286.783527  -2285.339108     57.419014
PR07 -10904.143408  -1468.302296  23043.956533    -40.039961
PR08  -9159.713074  16069.435242  17623.066574    -54.504962
PR11 -12128.598890   4921.772389 -21881.101676    -37.338214
PR12   4005.520194  14240.981540 -20750.546461    163.085187
PR13  18427.093780  15833.508287  -7770.580050    -43.738477
PR14  21919.557868   8166.637794  10170.857627     55.455626
PR15  12730.110868  -4150.483826  21738.002688    106.981314
PR16  -4782.213293 -14485.150289  20393.865059     -6.242006
PR17  21174.463366  -3808.280310  13747.424663    357.409875
PR18  22041.713668 -12510.627084  -2664.716954     49.064069
PR19  12075.807338 -14314.490093 -17329.170973   -110.810604
PR20  -7663.177675  -7720.318902 -23071.088589   -421.565836
PR21 -21528.459949   4409.265092 -12923.517287   -151.565167
PR22 -21752.745019  12830.925342   3874.389346    -72.482755
PR23  -4883.509223  13119.072439  21310.099242    331.404066
PR24   8628.704747   7681.742041  22756.769395     12.988193
PR26  -2476.083798 -10362.771190 -23169.177345   -362.323908
EOF
